STARLINK-34495          
1 64428U 25129S   26068.45687909  .00005397  00000+0  45958-3 0  9990
2 64428  70.0016  74.9999 0002800 269.7544  90.3294 14.98342618 41259
MACSAT 2 (M 2)          
1 20608U 90043B   26068.49450489  .00001895  00000+0  23137-3 0  9998
2 20608  89.7421 248.3269 0082232 165.3138 195.0504 14.80500759923644
